TYVAK-0173              
1 48892U 21059P   26199.93311944  .00000719  00000+0  94679-4 0  9994
2 48892  96.0069 268.3982 0007099 283.8496  76.1932 14.81977352272945
MANDRAKE 2 ABLE         
1 48907U 21059AE  26199.50063948  .00013548  00000+0  19511-3 0  9997
2 48907  97.7029  31.7017 0004008 218.4556 141.6413 15.56162732281993
MANDRAKE 2 BAKER        
1 48908U 21059AF  26199.52927430  .00017376  00000+0  20762-3 0  9998
2 48908  97.6991  34.8300 0002985 204.5495 155.5620 15.61089120282181
PACE-1                  
1 48909U 21059AG  26199.82696785  .00086565  00000+0  35271-3 0  9995
2 48909  97.6714  41.6853 0003568 172.0089 188.1239 15.85924691282804
YAM-3                   
1 48915U 21059AN  26199.78786590  .00006430  00000+0  11990-3 0  9996
2 48915  97.6998  28.8245 0004135 224.5832 135.5086 15.49196619281881
FARADAY_PHOENIX         
1 48924U 21059AX  26199.81861372  .00158343  00000+0  57320-3 0  9990
2 48924  97.6767  41.6016 0005958 190.8320 169.2823 15.88156607282661
DEMO8 (TENZING)         
1 48951U 21059CA  26199.50403536  .00011696  00000+0  16895-3 0  9991
2 48951  97.7015  35.3341 0005941 217.2984 142.7858 15.56112147282177
FENGYUN 3E              
1 49008U 21062A   26199.91178541  .00000104  00000+0  69725-4 0  9992
2 49008  98.7502 202.9672 0002058  32.6040 327.5263 14.19907065261089
ISS (NAUKA)             
1 49044U 21066A   26199.86307315  .00004074  00000+0  81939-4 0  9994
2 49044  51.6317 143.3357 0006807 311.9483  48.0925 15.49045026575935
STARLINK-3100           
1 49144U 21082Q   26199.75126157  .00000607  00000+0  58651-4 0  9997
2 49144  70.0004 323.9929 0003222 271.0524  89.0266 14.98332596265613
2021-091B               
1 49316U 21091B   26199.95117747  .00001117  00000+0  57096-4 0  9994
2 49316  97.4475  27.0449 0011730 293.8862  66.1143 15.18690952263803
SDGSAT 1                
1 49387U 21100A   26199.97827707  .00001371  00000+0  68092-4 0  9999
2 49387  97.2611 245.7116 0010187 150.6966 209.4842 15.19248793260742
TEIKYOSAT-4 (OORURI)    
1 49396U 21102B   26199.54045017  .00000785  00000+0  52572-4 0  9994
2 49396  97.3662 227.8051 0012062 177.0769 183.0533 15.09605383257455
Z-SAT                   
1 49399U 21102E   26199.96271869  .00002310  00000+0  11483-3 0  9990
2 49399  97.3309 234.3226 0017877 132.3997 227.8754 15.18479669258267
HIBARI                  
1 49400U 21102F   26199.68357404  .00005611  00000+0  18183-3 0  9993
2 49400  97.3216 245.2371 0013304  90.9455 269.3311 15.32320448259018
KOSEN-1                 
1 49402U 21102H   26199.07090390  .00004215  00000+0  16014-3 0  9996
2 49402  97.3167 240.6335 0015453  98.6524 261.6467 15.27238111258737
GLOBAL-14               
1 49469U 21106A   26199.76121180  .00014858  00000+0  24419-3 0  9993
2 49469  42.0036 103.2309 0018251 247.4363 112.4550 15.51942274263035
GAOFEN-3 02             
1 49495U 21109A   26199.96273657 -.00000075  00000+0 -95259-5 0  9994
2 49495  98.4093 207.6087 0001386 241.9296 118.1754 14.42210620244893
GLOBAL-12               
1 49772U 21115BA  26199.31839577  .00016589  00000+0  24559-3 0  9995
2 49772  53.1934 254.6339 0002961  74.6035 285.5304 15.55445406260746
GLOBAL-13               
1 49773U 21115BB  26199.65391368  .00011161  00000+0  22422-3 0  9992
2 49773  53.1962 264.8675 0000259 147.0556 213.0469 15.47190673260635
GLOBAL-17               
1 49949U 21120A   26199.27756735  .00015010  00000+0  23127-3 0  9994
2 49949  41.9930 223.8035 0013479 114.9908 245.2338 15.53813418259734
GLOBAL-16               
1 49950U 21120B   26199.39883856  .00013027  00000+0  21856-3 0  9997
2 49950  41.9932 227.4167 0011467 105.6542 254.5569 15.51570672259694
XW-3 (CAS-9)            
1 50466U 21131B   26199.91769602  .00000215  00000+0  79970-4 0  9999
2 50466  98.4987 292.1364 0004359  20.9840 339.1527 14.41383391239684
ION SCV-004             
1 50993U 22002K   26199.87671105  .00002690  00000+0  93077-4 0  9990
2 50993  97.2811 256.9425 0005895 230.6045 129.4675 15.30728794250148
ETV-A1                  
1 51060U 22002CE  26199.96189649  .00006122  00000+0  14913-3 0  9998
2 51060  97.2856 266.1865 0004312 208.8978 151.2031 15.41281399250730
BRO-5                   
1 51061U 22002CF  26199.98521538  .00018045  00000+0  33448-3 0  9999
2 51061  97.2975 273.9725 0005777 189.5288 170.5855 15.49019463251175
LUDI TANCE 1-01A (L-SA*)
1 51284U 22007A   26199.91224060 -.00000051  00000+0  36058-6 0  9996
2 51284  97.8107 206.8822 0001605  90.4015 269.7386 14.88410085243192
LUDI TANCE 1-01B (L-SA*)
1 51822U 22018A   26199.94585565  .00000252  00000+0  33004-4 0  9997
2 51822  97.8113 206.9137 0001653  91.0193 269.1213 14.88416488238431
