OBJECT_NAME,OBJECT_ID,EPOCH,MEAN_MOTION,ECCENTRICITY,INCLINATION,RA_OF_ASC_NODE,ARG_OF_PERICENTER,MEAN_ANOMALY,EPHEMERIS_TYPE,CLASSIFICATION_TYPE,NORAD_CAT_ID,ELEMENT_SET_NO,REV_AT_EPOCH,BSTAR,MEAN_MOTION_DOT,MEAN_MOTION_DDOT
TYVAK-0173,2021-059P,2026-07-18T22:23:41.519616,14.81977352,.00070994,96.0069,268.3982,283.8496,76.1932,0,U,48892,999,27294,.94678924E-4,.719E-5,0
MANDRAKE 2 ABLE,2021-059AE,2026-07-18T12:00:55.251072,15.56162732,.00040088,97.7029,31.7017,218.4556,141.6413,0,U,48907,999,28199,.19511073E-3,.13548E-3,0
MANDRAKE 2 BAKER,2021-059AF,2026-07-18T12:42:09.299520,15.61089120,.00029859,97.6991,34.8300,204.5495,155.5620,0,U,48908,999,28218,.20762089E-3,.17376E-3,0
PACE-1,2021-059AG,2026-07-18T19:50:50.022240,15.85924691,.00035683,97.6714,41.6853,172.0089,188.1239,0,U,48909,999,28280,.35270717E-3,.86565E-3,0
YAM-3,2021-059AN,2026-07-18T18:54:31.613760,15.49196619,.00041355,97.6998,28.8245,224.5832,135.5086,0,U,48915,999,28188,.11990033E-3,.643E-4,0
FARADAY_PHOENIX,2021-059AX,2026-07-18T19:38:48.225408,15.88156607,.00059583,97.6767,41.6016,190.8320,169.2823,0,U,48924,999,28266,.57320022E-3,.158343E-2,0
DEMO8 (TENZING),2021-059CA,2026-07-18T12:05:48.655104,15.56112147,.00059411,97.7015,35.3341,217.2984,142.7858,0,U,48951,999,28217,.16894633E-3,.11696E-3,0
FENGYUN 3E,2021-062A,2026-07-18T21:52:58.259424,14.19907065,.00020583,98.7502,202.9672,32.6040,327.5263,0,U,49008,999,26108,.6972507E-4,.104E-5,0
ISS (NAUKA),2021-066A,2026-07-18T20:42:49.520160,15.49045026,.00068076,51.6317,143.3357,311.9483,48.0925,0,U,49044,999,57593,.819388E-4,.4074E-4,0
STARLINK-3100,2021-082Q,2026-07-18T18:01:48.999648,14.98332596,.0003222,70.0004,323.9929,271.0524,89.0266,0,U,49144,999,26561,.58650619E-4,.607E-5,0
2021-091B,2021-091B,2026-07-18T22:49:41.733408,15.18690952,.00117303,97.4475,27.0449,293.8862,66.1143,0,U,49316,999,26380,.57095526E-4,.1117E-4,0
SDGSAT 1,2021-100A,2026-07-18T23:28:43.138848,15.19248793,.00101871,97.2611,245.7116,150.6966,209.4842,0,U,49387,999,26074,.6809247E-4,.1371E-4,0
TEIKYOSAT-4 (OORURI),2021-102B,2026-07-18T12:58:14.894688,15.09605383,.0012062,97.3662,227.8051,177.0769,183.0533,0,U,49396,999,25745,.52572E-4,.785E-5,0
Z-SAT,2021-102E,2026-07-18T23:06:18.894816,15.18479669,.00178772,97.3309,234.3226,132.3997,227.8754,0,U,49399,999,25826,.11483068E-3,.231E-4,0
HIBARI,2021-102F,2026-07-18T16:24:20.797056,15.32320448,.00133041,97.3216,245.2371,90.9455,269.3311,0,U,49400,999,25901,.18183488E-3,.5611E-4,0
KOSEN-1,2021-102H,2026-07-18T01:42:06.096960,15.27238111,.0015453,97.3167,240.6335,98.6524,261.6467,0,U,49402,999,25873,.16013866E-3,.4215E-4,0
GLOBAL-14,2021-106A,2026-07-18T18:16:08.699520,15.51942274,.00182515,42.0036,103.2309,247.4363,112.4550,0,U,49469,999,26303,.24419325E-3,.14858E-3,0
GAOFEN-3 02,2021-109A,2026-07-18T23:06:20.439648,14.42210620,.00013862,98.4093,207.6087,241.9296,118.1754,0,U,49495,999,24489,-.9525938E-5,-.75E-6,0
GLOBAL-12,2021-115BA,2026-07-18T07:38:29.394528,15.55445406,.00029618,53.1934,254.6339,74.6035,285.5304,0,U,49772,999,26074,.2455878E-3,.16589E-3,0
GLOBAL-13,2021-115BB,2026-07-18T15:41:38.141952,15.47190673,.00002592,53.1962,264.8675,147.0556,213.0469,0,U,49773,999,26063,.2242171E-3,.11161E-3,0
GLOBAL-17,2021-120A,2026-07-18T06:39:41.819040,15.53813418,.00134797,41.9930,223.8035,114.9908,245.2338,0,U,49949,999,25973,.23127066E-3,.1501E-3,0
GLOBAL-16,2021-120B,2026-07-18T09:34:19.651584,15.51570672,.00114679,41.9932,227.4167,105.6542,254.5569,0,U,49950,999,25969,.2185564E-3,.13027E-3,0
XW-3 (CAS-9),2021-131B,2026-07-18T22:01:28.936128,14.41383391,.00043596,98.4987,292.1364,20.9840,339.1527,0,U,50466,999,23968,.7996967E-4,.215E-5,0
ION SCV-004,2022-002K,2026-07-18T21:02:27.834720,15.30728794,.0005895,97.2811,256.9425,230.6045,129.4675,0,U,50993,999,25014,.93076852E-4,.269E-4,0
ETV-A1,2022-002CE,2026-07-18T23:05:07.856736,15.41281399,.00043129,97.2856,266.1865,208.8978,151.2031,0,U,51060,999,25073,.14912504E-3,.6122E-4,0
BRO-5,2022-002CF,2026-07-18T23:38:42.608832,15.49019463,.00057777,97.2975,273.9725,189.5288,170.5855,0,U,51061,999,25117,.33447922E-3,.18045E-3,0
LUDI TANCE 1-01A (L-SAR 01A),2022-007A,2026-07-18T21:53:37.587840,14.88410085,.00016058,97.8107,206.8822,90.4015,269.7386,0,U,51284,999,24319,.360578E-6,-.51E-6,0
LUDI TANCE 1-01B (L-SAR 01B),2022-018A,2026-07-18T22:42:01.928160,14.88416488,.00016532,97.8113,206.9137,91.0193,269.1213,0,U,51822,999,23843,.33003741E-4,.252E-5,0
